BEIDOU-2 IGSO-1 (C06)   
1 36828U 10036A   24265.55247330 -.00000123  00000+0  00000+0 0  9990
2 36828  54.2549 168.6973 0041043 204.6345 292.1584  1.00254068 51850
BEIDOU-2 G4 (C04)       
1 37210U 10057A   24267.84464826 -.00000123  00000+0  00000+0 0  9994
2 37210   2.0808  69.7098 0007935 163.2802 234.3766  1.00271218 50961
BEIDOU-2 IGSO-2 (C07)   
1 37256U 10068A   24268.47764510 -.00000179  00000+0  00000+0 0  9990
2 37256  48.6974 279.6040 0040392 217.3920 146.7823  1.00271194 50464
BEIDOU-2 IGSO-3 (C08)   
1 37384U 11013A   24267.33298622 -.00000179  00000+0  00000+0 0  9993
2 37384  61.5046  46.1664 0032243 174.9322   8.9532  1.00283832 49320
BEIDOU-2 IGSO-4 (C09)   
1 37763U 11038A   24259.70686448 -.00000094  00000+0  00000+0 0  9996
2 37763  54.5620 171.3831 0129048 229.2096 303.3869  1.00288593 48233
BEIDOU-2 IGSO-5 (C10)   
1 37948U 11073A   24267.00778487 -.00000144  00000+0  00000+0 0  9993
2 37948  48.8340 279.3156 0103120 221.5991 320.4351  1.00270618 46798
BEIDOU-2 G5 (C05)       
1 38091U 12008A   24267.89605663  .00000045  00000+0  00000+0 0  9993
2 38091   2.0004  70.5094 0007019 221.6209  92.4329  1.00269514 46033
BEIDOU-2 M3 (C11)       
1 38250U 12018A   24268.26939044 -.00000087  00000+0  00000+0 0  9993
2 38250  56.2679 326.0428 0024638 261.9009  97.8786  1.86233499 84541
BEIDOU-2 M4 (C12)       
1 38251U 12018B   24268.19937696 -.00000086  00000+0  00000+0 0  9996
2 38251  56.1738 325.3093 0015501 261.8279  98.0554  1.86231898 84541
BEIDOU-2 M6 (C14)       
1 38775U 12050B   24267.90893499 -.00000004  00000+0  00000+0 0  9993
2 38775  55.9943  83.8645 0010887 348.9399  11.0713  1.86231068 81906
BEIDOU-2 G6 (C02)       
1 38953U 12059A   24268.11545330 -.00000188  00000+0  00000+0 0  9995
2 38953   2.8086  79.6879 0006211 306.0179 103.3367  1.00270313 43722
BEIDOU-3S IGSO-1S (C31) 
1 40549U 15019A   24264.57410293 -.00000171  00000+0  00000+0 0  9995
2 40549  50.3939 303.0621 0036754 197.5051 162.4153  1.00284029 34703
BEIDOU-3S M2S (C58)     
1 40748U 15037A   24268.39916947 -.00000084  00000+0  00000+0 0  9990
2 40748  55.4028 323.6608 0012645 249.8311 110.0915  1.86229242 62374
BEIDOU-3S M1S (C57)     
1 40749U 15037B   24267.06101439 -.00000084  00000+0  00000+0 0  9996
2 40749  55.4065 323.6930 0003141 315.3993  44.6354  1.86227507 62359
BEIDOU-3S IGSO-2S (C56) 
1 40938U 15053A   24267.47410347 -.00000116  00000+0  00000+0 0  9996
2 40938  50.2077 266.2516 0053247 189.8706 173.3645  1.00283843 33021
BEIDOU-2 IGSO-6 (C13)   
1 41434U 16021A   24267.74348601 -.00000148  00000+0  00000+0 0  9992
2 41434  59.3319  44.3600 0052948 221.9542  97.9747  1.00294848 31146
BEIDOU-2 G7 (C03)       
1 41586U 16037A   24267.97781105 -.00000366  00000+0  00000+0 0  9994
2 41586   1.6137  66.0018 0006651 353.1442  46.7424  1.00271981 30453
BEIDOU-3 M1 (C19)       
1 43001U 17069A   24267.13790235 -.00000007  00000+0  00000+0 0  9998
2 43001  56.1438  83.9987 0007181 308.9649  51.0061  1.86231280 46832
BEIDOU-3 M2 (C20)       
1 43002U 17069B   24267.07537903 -.00000007  00000+0  00000+0 0  9993
2 43002  56.1428  84.0376 0005729 345.2659  14.7525  1.86230874 46825
BEIDOU-3 M7 (C27)       
1 43107U 18003A   24268.43445384 -.00000086  00000+0  00000+0 0  9997
2 43107  54.8611 324.2070 0002592  85.9039 274.1837  1.86232449 45619
BEIDOU-3 M8 (C28)       
1 43108U 18003B   24268.37571505 -.00000086  00000+0  00000+0 0  9996
2 43108  54.8543 324.1940 0004838 253.1800 106.8249  1.86230935 45615
BEIDOU-3 M4 (C22)       
1 43207U 18018A   24267.20601164 -.00000007  00000+0  00000+0 0  9991
2 43207  56.1027  84.0823 0005076  29.7426 330.3214  1.86231200 44975
BEIDOU-3 M3 (C21)       
1 43208U 18018B   24267.27264571 -.00000006  00000+0  00000+0 0  9995
2 43208  56.1022  84.0844 0005221 329.8302  30.1749  1.86231184 44972
BEIDOU-3 M9 (C29)       
1 43245U 18029A   24268.02996201 -.00000082  00000+0  00000+0 0  9998
2 43245  54.7411 321.9184 0002095 235.5248 124.5137  1.86232604 44143
BEIDOU-3 M10 (C30)      
1 43246U 18029B   24266.88559160 -.00000081  00000+0  00000+0 0  9999
2 43246  54.7399 321.9864 0002666 349.0937  10.9604  1.86232864 44105
BEIDOU-2 IGSO-7 (C16)   
1 43539U 18057A   24268.54481112 -.00000157  00000+0  00000+0 0  9995
2 43539  55.1476 168.5240 0078304 233.4187 271.0568  1.00281568 22802
BEIDOU-3 M5 (C23)       
1 43581U 18062A   24268.18389898 -.00000003  00000+0  00000+0 0  9996
2 43581  54.1232 203.7642 0004177 293.5026  66.4466  1.86228655 41886
BEIDOU-3 M6 (C24)       
1 43582U 18062B   24266.43838626  .00000020  00000+0  00000+0 0  9999
2 43582  54.1232 203.8131 0005487  14.2789 345.7289  1.86229644 41852
BEIDOU-3 M12 (C26)      
1 43602U 18067A   24266.37151640  .00000020  00000+0  00000+0 0  9994
2 43602  54.2141 202.5060 0007676  24.4123 335.6180  1.86227606 41336
BEIDOU-3 M11 (C25)      
1 43603U 18067B   24267.04179733  .00000013  00000+0  00000+0 0  9995
2 43603  54.2112 202.4480 0004486  12.8831 347.1235  1.86227016 41371
BEIDOU-3 M13 (C32)      
1 43622U 18072A   24267.54060014 -.00000006  00000+0  00000+0 0  9991
2 43622  56.0741  83.6000 0003943 307.2857  52.7129  1.86231292 40891
BEIDOU-3 M14 (C33)      
1 43623U 18072B   24267.94301209 -.00000004  00000+0  00000+0 0  9998
2 43623  56.0764  83.5799 0002818   6.7134 353.3252  1.86231334 40894
BEIDOU-3 M16 (C35)      
1 43647U 18078A   24267.56823804 -.00000082  00000+0  00000+0 0  9994
2 43647  54.6384 322.0255 0005832  12.1201 347.9526  1.86232158 40398
BEIDOU-3 M15 (C34)      
1 43648U 18078B   24268.23431095 -.00000082  00000+0  00000+0 0  9997
2 43648  54.6336 322.0049 0002481  15.4749 344.5909  1.86232230 40431
BEIDOU-3 G1 (C59)       
1 43683U 18085A   24268.19823788 -.00000291  00000+0  00000+0 0  9995
2 43683   2.4316 105.9381 0002225  36.8378  72.1447  1.00269954 21728
BEIDOU-3 M17 (C36)      
1 43706U 18093A   24267.31199474  .00000011  00000+0  00000+0 0  9990
2 43706  54.2063 203.7396 0009084 288.4998  71.3950  1.86228249 39774
BEIDOU-3 M18 (C37)      
1 43707U 18093B   24267.17653795  .00000012  00000+0  00000+0 0  9997
2 43707  54.2072 203.7359 0007646 317.9360  41.9988  1.86229798 39760
BEIDOU-3 IGSO-1 (C38)   
1 44204U 19023A   24268.52383271 -.00000211  00000+0  00000+0 0  9995
2 44204  57.7943  44.1866 0024168 206.0823  61.6834  1.00271525 20038
BEIDOU-2 G8 (C01)       
1 44231U 19027A   24268.53657642 -.00000261  00000+0  00000+0 0  9991
2 44231   1.7196  74.4015 0003326 181.7661  85.2784  1.00276270 19756
BEIDOU-3 IGSO-2 (C39)   
1 44337U 19035A   24267.62180010 -.00000151  00000+0  00000+0 0  9994
2 44337  55.1817 164.4074 0034755 202.6566 338.6319  1.00266445 19334
BEIDOU-3 M24 (C46)      
1 44542U 19061A   24268.32024533 -.00000004  00000+0  00000+0 0  9993
2 44542  54.4335 204.0114 0008483 355.2596   4.7249  1.86229457 34046
BEIDOU-3 M23 (C45)      
1 44543U 19061B   24267.72441078  .00000005  00000+0  00000+0 0  9994
2 44543  54.4325 204.0002 0005577 341.2068 251.8580  1.86229475 34034
BEIDOU-3 IGSO-3 (C40)   
1 44709U 19073A   24266.46191750 -.00000170  00000+0  00000+0 0  9994
2 44709  55.8857 287.6943 0041269 190.9485 168.9962  1.00272911 18093
BEIDOU-3 M22 (C44)      
1 44793U 19078A   24268.16536129 -.00000082  00000+0  00000+0 0  9996
2 44793  54.4856 321.9248 0004510  18.2260 341.8482  1.86232128 32906
BEIDOU-3 M21 (C43)      
1 44794U 19078B   24268.29490487 -.00000082  00000+0  00000+0 0  9997
2 44794  54.4590 321.8941 0002567   2.4956 357.5637  1.86232582 32908
BEIDOU-3 M19 (C41)      
1 44864U 19090A   24268.50464191 -.00000001  00000+0  00000+0 0  9997
2 44864  56.0102  83.7330 0015290 281.0389  52.0381  1.86231588 32482
BEIDOU-3 M20 (C42)      
1 44865U 19090B   24268.20416003 -.00000003  00000+0  00000+0 0  9996
2 44865  56.0109  83.7764 0012899 296.4924 284.8307  1.86231516 32459
BEIDOU-3 G2 (C60)       
1 45344U 20017A   24268.47234539 -.00000154  00000+0  00000+0 0  9998
2 45344   2.4468  33.1665 0003677 187.9726  32.7315  1.00272352 16946
BEIDOU-3 G3 (C61)       
1 45807U 20040A   24268.04931359 -.00000366  00000+0  00000+0 0  9990
2 45807   0.9610  52.1130 0002356 327.7750 111.6894  1.00266854 15751
BEIDOU-3 G4             
1 56564U 23066A   24267.87410308 -.00000126  00000+0  00000+0 0  9993
2 56564   1.8815 288.5313 0005761 237.7925 311.4680  1.00270098  5066
BEIDOU-3 M25            
1 58654U 23207A   24267.84081635 -.00000007  00000+0  00000+0 0  9994
2 58654  55.1931  83.7030 0000312 189.4377 170.5969  1.86232168  5087
BEIDOU-3 M26            
1 58655U 23207B   24267.63998029 -.00000008  00000+0  00000+0 0  9997
2 58655  55.1950  83.6954 0001760 216.5572 143.4658  1.86231639  5064
